TIANQI-15               
1 49027U 21065B   26068.81163741  .00006722  00000+0  41179-3 0  9990
2 49027  34.9979 108.2420 0007067 250.7766 109.2180 15.09508085254244
STARLINK-4217           
1 52999U 22076P   26068.47596316  .00002019  00000+0  14496-3 0  9992
2 52999  53.2169  95.0808 0001498  90.6536 269.4628 15.08829001202817
